[{"OBJECT_NAME":"JILIN-1 06","OBJECT_ID":"2017-074C","EPOCH":"2026-03-09T22:46:57.173376","MEAN_MOTION":15.32444387,"ECCENTRICITY":0.00061285,"INCLINATION":97.4715,"RA_OF_ASC_NODE":171.0354,"ARG_OF_PERICENTER":223.0031,"MEAN_ANOMALY":137.0732,"EPHEMERIS_TYPE":0,"CLASSIFICATION_TYPE":"U","NORAD_CAT_ID":43024,"ELEMENT_SET_NO":999,"REV_AT_EPOCH":45863,"BSTAR":0.00028431628,"MEAN_MOTION_DOT":8.833e-5,"MEAN_MOTION_DDOT":0},{"OBJECT_NAME":"STARLINK-35723","OBJECT_ID":"2025-244F","EPOCH":"2026-03-09T18:06:15.387264","MEAN_MOTION":15.30210282,"ECCENTRICITY":0.00013227,"INCLINATION":53.1584,"RA_OF_ASC_NODE":229.3139,"ARG_OF_PERICENTER":85.1641,"MEAN_ANOMALY":274.9511,"EPHEMERIS_TYPE":0,"CLASSIFICATION_TYPE":"U","NORAD_CAT_ID":66211,"ELEMENT_SET_NO":999,"REV_AT_EPOCH":2166,"BSTAR":0.0010713325,"MEAN_MOTION_DOT":0.00031515,"MEAN_MOTION_DDOT":0}]
